MONOLITH                
1 49052U 21068A   26068.54548855  .00008348  00000+0  53656-3 0  9993
2 49052  37.0220 141.2957 0002679 131.6464 228.4511 15.08010119252226
STARLINK-5156           
1 53973U 22125K   26068.68847022 -.00000367  00000+0 -49514-5 0  9993
2 53973  53.2165 224.0063 0001122  83.5147 276.5973 15.08832105189327
